{
  "type": "FeatureCollection",
  "features": [
    {
      "type": "Feature",
      "properties": {
        "norad_id": 34582,
        "name": "COSMOS 2251 DEB",
        "group": "cosmos-2251-debris",
        "lat": 12.901703299708089,
        "lon": -64.38851818989316,
        "alt_km": 719.6930112399878,
        "timestamp": "2025-12-02T06:27:53.406093+00:00",
        "meta_object_name": "COSMOS 2251 DEB",
        "meta_object_id": "1993-036VU",
        "meta_epoch": "2025-12-01T13:46:01.947360",
        "meta_mean_motion": 14.43227786,
        "meta_eccentricity": 0.00473114,
        "meta_inclination": 74.0193,
        "meta_ra_of_asc_node": 293.1409,
        "meta_arg_of_pericenter": 46.0052,
        "meta_mean_anomaly": 314.4989,
        "meta_ephemeris_type": 0,
        "meta_classification_type": "U",
        "meta_norad_cat_id": 34582,
        "meta_element_set_no": 999,
        "meta_rev_at_epoch": 87786,
        "meta_bstar": 0.00077935499,
        "meta_mean_motion_dot": 2.632e-05,
        "meta_mean_motion_ddot": 0,
        "tle_line1": "1 34582U 93036VU  25335.57363365  .00002632  00000+0  77935-3 0  9995",
        "tle_line2": "2 34582  74.0193 293.1409 0047311  46.0052 314.4989 14.43227786877867"
      },
      "geometry": {
        "type": "Point",
        "coordinates": [
          -64.38851818989316,
          12.901703299708089
        ]
      }
    },
    {
      "type": "Feature",
      "properties": {
        "norad_id": 34588,
        "name": "COSMOS 2251 DEB",
        "group": "cosmos-2251-debris",
        "lat": 58.64865097821728,
        "lon": 79.6447659532595,
        "alt_km": 755.6169170550811,
        "timestamp": "2025-12-02T06:27:53.406103+00:00",
        "meta_object_name": "COSMOS 2251 DEB",
        "meta_object_id": "1993-036WA",
        "meta_epoch": "2025-12-01T13:49:34.178592",
        "meta_mean_motion": 14.41960402,
        "meta_eccentricity": 0.00188313,
        "meta_inclination": 74.0426,
        "meta_ra_of_asc_node": 288.9402,
        "meta_arg_of_pericenter": 342.9513,
        "meta_mean_anomaly": 136.8005,
        "meta_ephemeris_type": 0,
        "meta_classification_type": "U",
        "meta_norad_cat_id": 34588,
        "meta_element_set_no": 999,
        "meta_rev_at_epoch": 87789,
        "meta_bstar": 0.00054215719,
        "meta_mean_motion_dot": 1.755e-05,
        "meta_mean_motion_ddot": 0,
        "tle_line1": "1 34588U 93036WA  25335.57609003  .00001755  00000+0  54216-3 0  9995",
        "tle_line2": "2 34588  74.0426 288.9402 0018831 342.9513 136.8005 14.41960402877897"
      },
      "geometry": {
        "type": "Point",
        "coordinates": [
          79.6447659532595,
          58.64865097821728
        ]
      }
    },
    {
      "type": "Feature",
      "properties": {
        "norad_id": 34589,
        "name": "COSMOS 2251 DEB",
        "group": "cosmos-2251-debris",
        "lat": -73.09437015015408,
        "lon": -34.56151247152883,
        "alt_km": 1022.3135636309235,
        "timestamp": "2025-12-02T06:27:53.406113+00:00",
        "meta_object_name": "COSMOS 2251 DEB",
        "meta_object_id": "1993-036WB",
        "meta_epoch": "2025-11-30T06:32:53.724192",
        "meta_mean_motion": 13.86039854,
        "meta_eccentricity": 0.02515315,
        "meta_inclination": 73.9253,
        "meta_ra_of_asc_node": 77.2733,
        "meta_arg_of_pericenter": 23.1146,
        "meta_mean_anomaly": 5.8842,
        "meta_ephemeris_type": 0,
        "meta_classification_type": "U",
        "meta_norad_cat_id": 34589,
        "meta_element_set_no": 999,
        "meta_rev_at_epoch": 84539,
        "meta_bstar": 0.00029490914,
        "meta_mean_motion_dot": 4.12e-06,
        "meta_mean_motion_ddot": 0,
        "tle_line1": "1 34589U 93036WB  25334.27284403  .00000412  00000+0  29491-3 0  9991",
        "tle_line2": "2 34589  73.9253  77.2733 0251531  23.1146   5.8842 13.86039854845396"
      },
      "geometry": {
        "type": "Point",
        "coordinates": [
          -34.56151247152883,
          -73.09437015015408
        ]
      }
    },
    {
      "type": "Feature",
      "properties": {
        "norad_id": 34590,
        "name": "COSMOS 2251 DEB",
        "group": "cosmos-2251-debris",
        "lat": -3.007075307167436,
        "lon": 163.21998073851486,
        "alt_km": 694.6110601725914,
        "timestamp": "2025-12-02T06:27:53.406122+00:00",
        "meta_object_name": "COSMOS 2251 DEB",
        "meta_object_id": "1993-036WC",
        "meta_epoch": "2025-12-01T10:24:56.032704",
        "meta_mean_motion": 14.5480505,
        "meta_eccentricity": 0.00680934,
        "meta_inclination": 74.0436,
        "meta_ra_of_asc_node": 343.9384,
        "meta_arg_of_pericenter": 116.8485,
        "meta_mean_anomaly": 12.0636,
        "meta_ephemeris_type": 0,
        "meta_classification_type": "U",
        "meta_norad_cat_id": 34590,
        "meta_element_set_no": 999,
        "meta_rev_at_epoch": 88956,
        "meta_bstar": 0.00013964388,
        "meta_mean_motion_dot": 5.88e-06,
        "meta_mean_motion_ddot": 0,
        "tle_line1": "1 34590U 93036WC  25335.43398186  .00000588  00000+0  13964-3 0  9998",
        "tle_line2": "2 34590  74.0436 343.9384 0068093 116.8485  12.0636 14.54805050889566"
      },
      "geometry": {
        "type": "Point",
        "coordinates": [
          163.21998073851486,
          -3.007075307167436
        ]
      }
    },
    {
      "type": "Feature",
      "properties": {
        "norad_id": 34609,
        "name": "COSMOS 2251 DEB",
        "group": "cosmos-2251-debris",
        "lat": 58.67488261863606,
        "lon": -82.81842522428487,
        "alt_km": 879.4184002957518,
        "timestamp": "2025-12-02T06:27:53.406132+00:00",
        "meta_object_name": "COSMOS 2251 DEB",
        "meta_object_id": "1993-036WE",
        "meta_epoch": "2025-12-01T09:47:24.508320",
        "meta_mean_motion": 14.21729086,
        "meta_eccentricity": 0.01444513,
        "meta_inclination": 73.7303,
        "meta_ra_of_asc_node": 127.4301,
        "meta_arg_of_pericenter": 348.7927,
        "meta_mean_anomaly": 39.6544,
        "meta_ephemeris_type": 0,
        "meta_classification_type": "U",
        "meta_norad_cat_id": 34609,
        "meta_element_set_no": 999,
        "meta_rev_at_epoch": 86471,
        "meta_bstar": 0.00076178373,
        "meta_mean_motion_dot": 1.834e-05,
        "meta_mean_motion_ddot": 0,
        "tle_line1": "1 34609U 93036WE  25335.40792255  .00001834  00000+0  76178-3 0  9992",
        "tle_line2": "2 34609  73.7303 127.4301 0144451 348.7927  39.6544 14.21729086864711"
      },
      "geometry": {
        "type": "Point",
        "coordinates": [
          -82.81842522428487,
          58.67488261863606
        ]
      }
    },
    {
      "type": "Feature",
      "properties": {
        "norad_id": 34610,
        "name": "COSMOS 2251 DEB",
        "group": "cosmos-2251-debris",
        "lat": 56.40935641514221,
        "lon": 75.11695965050451,
        "alt_km": 809.7579856488419,
        "timestamp": "2025-12-02T06:27:53.406142+00:00",
        "meta_object_name": "COSMOS 2251 DEB",
        "meta_object_id": "1993-036WF",
        "meta_epoch": "2025-12-01T14:33:18.683136",
        "meta_mean_motion": 14.06915829,
        "meta_eccentricity": 0.01800119,
        "meta_inclination": 74.0188,
        "meta_ra_of_asc_node": 281.84,
        "meta_arg_of_pericenter": 54.9016,
        "meta_mean_anomaly": 306.8849,
        "meta_ephemeris_type": 0,
        "meta_classification_type": "U",
        "meta_norad_cat_id": 34610,
        "meta_element_set_no": 999,
        "meta_rev_at_epoch": 85403,
        "meta_bstar": 0.0022537117,
        "meta_mean_motion_dot": 4.331e-05,
        "meta_mean_motion_ddot": 0,
        "tle_line1": "1 34610U 93036WF  25335.60646624  .00004331  00000+0  22537-2 0  9998",
        "tle_line2": "2 34610  74.0188 281.8400 0180011  54.9016 306.8849 14.06915829854036"
      },
      "geometry": {
        "type": "Point",
        "coordinates": [
          75.11695965050451,
          56.40935641514221
        ]
      }
    },
    {
      "type": "Feature",
      "properties": {
        "norad_id": 34611,
        "name": "COSMOS 2251 DEB",
        "group": "cosmos-2251-debris",
        "lat": -14.465757669627381,
        "lon": 116.99226764299216,
        "alt_km": 685.1699678013674,
        "timestamp": "2025-12-02T06:27:53.406152+00:00",
        "meta_object_name": "COSMOS 2251 DEB",
        "meta_object_id": "1993-036WG",
        "meta_epoch": "2025-12-01T19:40:46.475040",
        "meta_mean_motion": 14.69135541,
        "meta_eccentricity": 0.0024195,
        "meta_inclination": 74.052,
        "meta_ra_of_asc_node": 122.0917,
        "meta_arg_of_pericenter": 167.0831,
        "meta_mean_anomaly": 322.1986,
        "meta_ephemeris_type": 0,
        "meta_classification_type": "U",
        "meta_norad_cat_id": 34611,
        "meta_element_set_no": 999,
        "meta_rev_at_epoch": 88230,
        "meta_bstar": 0.0013218,
        "meta_mean_motion_dot": 7.785e-05,
        "meta_mean_motion_ddot": 0,
        "tle_line1": "1 34611U 93036WG  25335.81998235  .00007785  00000+0  13218-2 0  9992",
        "tle_line2": "2 34611  74.0520 122.0917 0024195 167.0831 322.1986 14.69135541882305"
      },
      "geometry": {
        "type": "Point",
        "coordinates": [
          116.99226764299216,
          -14.465757669627381
        ]
      }
    }
  ]
}